{
  "links" : {
    "next" : "https://api.nasa.gov/neo/rest/v1/feed?start_date=2004-04-09&end_date=2004-04-09&detailed=true&api_key=t0TVs3DtDT2H8Oy2Zy8m2eVrNsAVKAexjcZXUckd",
    "prev" : "https://api.nasa.gov/neo/rest/v1/feed?start_date=2004-04-07&end_date=2004-04-07&detailed=true&api_key=t0TVs3DtDT2H8Oy2Zy8m2eVrNsAVKAexjcZXUckd",
    "self" : "https://api.nasa.gov/neo/rest/v1/feed?start_date=2004-04-08&end_date=2004-04-08&detailed=true&api_key=t0TVs3DtDT2H8Oy2Zy8m2eVrNsAVKAexjcZXUckd"
  },
  "element_count" : 8,
  "near_earth_objects" : {
    "2004-04-08" : [ {
      "links" : {
        "self" : "https://api.nasa.gov/neo/rest/v1/neo/3387458?api_key=t0TVs3DtDT2H8Oy2Zy8m2eVrNsAVKAexjcZXUckd"
      },
      "neo_reference_id" : "3387458",
      "name" : "(2007 TH1)",
      "nasa_jpl_url" : "http://ssd.jpl.nasa.gov/sbdb.cgi?sstr=3387458",
      "absolute_magnitude_h" : 22.0,
      "estimated_diameter" : {
        "kilometers" : {
          "estimated_diameter_min" : 0.1058168859,
          "estimated_diameter_max" : 0.2366137501
        },
        "meters" : {
          "estimated_diameter_min" : 105.8168859331,
          "estimated_diameter_max" : 236.6137501138
        },
        "miles" : {
          "estimated_diameter_min" : 0.0657515442,
          "estimated_diameter_max" : 0.1470249225
        },
        "feet" : {
          "estimated_diameter_min" : 347.1682720448,
          "estimated_diameter_max" : 776.2918559233
        }
      },
      "is_potentially_hazardous_asteroid" : true,
      "close_approach_data" : [ {
        "close_approach_date" : "2004-04-08",
        "epoch_date_close_approach" : 1081407600000,
        "relative_velocity" : {
          "kilometers_per_second" : "24.2031049521",
          "kilometers_per_hour" : "87131.1778274588",
          "miles_per_hour" : "54139.9254672896"
        },
        "miss_distance" : {
          "astronomical" : "0.3649726217",
          "lunar" : "141.9743499756",
          "kilometers" : "54599128",
          "miles" : "33926324"
        },
        "orbiting_body" : "Earth"
      } ],
      "orbital_data" : {
        "orbit_id" : "17",
        "orbit_determination_date" : "2017-04-06 09:05:53",
        "orbit_uncertainty" : "6",
        "minimum_orbit_intersection" : ".0214794",
        "jupiter_tisserand_invariant" : "4.695",
        "epoch_osculation" : "2458000.5",
        "eccentricity" : ".4176407605097837",
        "semi_major_axis" : "1.361537431524575",
        "inclination" : "20.10798367315228",
        "ascending_node_longitude" : "13.71608744824091",
        "orbital_period" : "580.2869516717462",
        "perihelion_distance" : ".7929039031601136",
        "perihelion_argument" : "282.3640100121995",
        "aphelion_distance" : "1.930170959889035",
        "perihelion_time" : "2457803.076181656155",
        "mean_anomaly" : "122.4783262815603",
        "mean_motion" : ".6203827243795117",
        "equinox" : "J2000"
      }
    }, {
      "links" : {
        "self" : "https://api.nasa.gov/neo/rest/v1/neo/3716434?api_key=t0TVs3DtDT2H8Oy2Zy8m2eVrNsAVKAexjcZXUckd"
      },
      "neo_reference_id" : "3716434",
      "name" : "(2015 HC1)",
      "nasa_jpl_url" : "http://ssd.jpl.nasa.gov/sbdb.cgi?sstr=3716434",
      "absolute_magnitude_h" : 27.1,
      "estimated_diameter" : {
        "kilometers" : {
          "estimated_diameter_min" : 0.0101054342,
          "estimated_diameter_max" : 0.0225964377
        },
        "meters" : {
          "estimated_diameter_min" : 10.1054341542,
          "estimated_diameter_max" : 22.5964377109
        },
        "miles" : {
          "estimated_diameter_min" : 0.0062792237,
          "estimated_diameter_max" : 0.0140407711
        },
        "feet" : {
          "estimated_diameter_min" : 33.1543125905,
          "estimated_diameter_max" : 74.1352966996
        }
      },
      "is_potentially_hazardous_asteroid" : false,
      "close_approach_data" : [ {
        "close_approach_date" : "2004-04-08",
        "epoch_date_close_approach" : 1081407600000,
        "relative_velocity" : {
          "kilometers_per_second" : "6.0546724529",
          "kilometers_per_hour" : "21796.8208303168",
          "miles_per_hour" : "13543.6968098154"
        },
        "miss_distance" : {
          "astronomical" : "0.1702027393",
          "lunar" : "66.2088623047",
          "kilometers" : "25461966",
          "miles" : "15821332"
        },
        "orbiting_body" : "Earth"
      } ],
      "orbital_data" : {
        "orbit_id" : "10",
        "orbit_determination_date" : "2017-04-06 08:34:21",
        "orbit_uncertainty" : "7",
        "minimum_orbit_intersection" : ".0565635",
        "jupiter_tisserand_invariant" : "4.837",
        "epoch_osculation" : "2458000.5",
        "eccentricity" : ".2166808231813283",
        "semi_major_axis" : "1.354358856233732",
        "inclination" : "1.975985392565842",
        "ascending_node_longitude" : "228.1640862036845",
        "orbital_period" : "575.7037453091443",
        "perihelion_distance" : "1.060895264382085",
        "perihelion_argument" : "343.7178950372322",
        "aphelion_distance" : "1.647822448085379",
        "perihelion_time" : "2458287.125358122905",
        "mean_anomaly" : "180.7669660567572",
        "mean_motion" : ".6253216223331766",
        "equinox" : "J2000"
      }
    }, {
      "links" : {
        "self" : "https://api.nasa.gov/neo/rest/v1/neo/3738932?api_key=t0TVs3DtDT2H8Oy2Zy8m2eVrNsAVKAexjcZXUckd"
      },
      "neo_reference_id" : "3738932",
      "name" : "(2015 YQ1)",
      "nasa_jpl_url" : "http://ssd.jpl.nasa.gov/sbdb.cgi?sstr=3738932",
      "absolute_magnitude_h" : 28.0,
      "estimated_diameter" : {
        "kilometers" : {
          "estimated_diameter_min" : 0.0066765941,
          "estimated_diameter_max" : 0.0149293183
        },
        "meters" : {
          "estimated_diameter_min" : 6.676594135,
          "estimated_diameter_max" : 14.9293183439
        },
        "miles" : {
          "estimated_diameter_min" : 0.004148642,
          "estimated_diameter_max" : 0.0092766455
        },
        "feet" : {
          "estimated_diameter_min" : 21.9048371017,
          "estimated_diameter_max" : 48.9807047955
        }
      },
      "is_potentially_hazardous_asteroid" : false,
      "close_approach_data" : [ {
        "close_approach_date" : "2004-04-08",
        "epoch_date_close_approach" : 1081407600000,
        "relative_velocity" : {
          "kilometers_per_second" : "16.1767707015",
          "kilometers_per_hour" : "58236.3745254576",
          "miles_per_hour" : "36185.8183822211"
        },
        "miss_distance" : {
          "astronomical" : "0.4113901444",
          "lunar" : "160.0307769775",
          "kilometers" : "61543092",
          "miles" : "38241104"
        },
        "orbiting_body" : "Earth"
      } ],
      "orbital_data" : {
        "orbit_id" : "8",
        "orbit_determination_date" : "2017-04-06 08:29:39",
        "orbit_uncertainty" : "6",
        "minimum_orbit_intersection" : ".000615632",
        "jupiter_tisserand_invariant" : "5.990",
        "epoch_osculation" : "2458000.5",
        "eccentricity" : ".403957410850079",
        "semi_major_axis" : "1.003000184879345",
        "inclination" : "2.484442826425956",
        "ascending_node_longitude" : "88.87947254444529",
        "orbital_period" : "366.9018879396638",
        "perihelion_distance" : ".5978308271133341",
        "perihelion_argument" : "111.9793427923618",
        "aphelion_distance" : "1.408169542645356",
        "perihelion_time" : "2458176.955131839705",
        "mean_anomaly" : "186.8642120676685",
        "mean_motion" : ".9811887369170507",
        "equinox" : "J2000"
      }
    } ]
  }
}